OBJECT_NAME,OBJECT_ID,EPOCH,MEAN_MOTION,ECCENTRICITY,INCLINATION,RA_OF_ASC_NODE,ARG_OF_PERICENTER,MEAN_ANOMALY,EPHEMERIS_TYPE,CLASSIFICATION_TYPE,NORAD_CAT_ID,ELEMENT_SET_NO,REV_AT_EPOCH,BSTAR,MEAN_MOTION_DOT,MEAN_MOTION_DDOT
FENGYUN 3D,2017-072A,2026-07-04T06:32:42.395424,14.19743843,.00020603,99.0137,160.0047,33.9887,326.1420,0,U,43010,999,44741,.23929056E-3,.46E-5,0
NOAA 20 (JPSS-1),2017-073A,2026-07-04T01:24:59.417856,14.19514840,.00009349,98.7772,124.3718,132.6124,227.5131,0,U,43013,999,44686,.54826971E-4,.71E-6,0
GOES 17,2018-022A,2026-07-04T03:11:51.756288,1.00271299,.00006988,0.9775,85.4459,49.8448,105.3262,0,U,43226,999,3059,0,-.171E-5,0
SENTINEL-3B,2018-039A,2026-07-04T03:52:02.114976,14.26739740,.00008799,98.6242,252.4495,117.3347,242.7924,0,U,43437,999,42654,.76024296E-4,.14E-5,0
FENGYUN 2H,2018-050A,2026-07-04T02:17:15.501120,1.00269281,.00018161,3.0725,78.8823,121.6728,195.1533,0,U,43491,999,2960,0,-.118E-5,0
METOP-C,2018-087A,2026-07-04T04:07:54.589440,14.21516822,.0002168,98.6636,244.4647,107.8151,252.3263,0,U,43689,999,39724,.78080156E-4,.128E-5,0
GEO-KOMPSAT-2A,2018-100A,2026-07-02T19:57:00.763776,1.00268738,.00022559,0.0451,169.6912,284.8102,253.8622,0,U,43823,999,2778,0,-.333E-5,0
METEOR-M2 2,2019-038A,2026-07-04T05:51:40.289184,14.24370807,.00013437,98.9152,172.7821,23.1634,336.9605,0,U,44387,999,36372,.13210239E-3,.26E-5,0
ARKTIKA-M 1,2021-016A,2026-06-29T22:50:46.732128,2.00617895,.72928178,63.2520,55.7907,269.9910,14.5481,0,U,47719,999,3904,0,-.281E-5,0
FENGYUN 3E,2021-062A,2026-07-04T07:48:13.132800,14.19906502,.00026534,98.7493,188.5421,57.4948,302.6484,0,U,49008,999,25901,.10527116E-3,.18E-5,0
GOES 18,2022-021A,2026-07-03T18:25:00.792192,1.00271795,.00005536,0.0069,78.9133,70.1938,271.9273,0,U,51850,999,675,0,.108E-5,0
NOAA 21 (JPSS-2),2022-150A,2026-07-04T05:34:45.305184,14.19539650,.00025201,98.7060,123.7352,123.4848,236.6570,0,U,54234,999,18896,.57924779E-4,.79E-6,0
METEOSAT-12 (MTG-I1),2022-170C,2026-07-04T05:19:55.546752,1.00276399,.00035453,0.7567,25.5280,75.4639,261.0086,0,U,54743,999,1314,0,.6E-7,0
TIANMU-1 03,2023-039A,2026-07-04T07:33:26.953920,15.47783606,.0003509,97.5242,359.9603,54.7165,305.4413,0,U,55973,999,18348,.3976602E-3,.20561E-3,0
TIANMU-1 04,2023-039B,2026-07-04T07:08:38.674176,15.48398804,.00039625,97.5178,359.0977,49.8882,310.2715,0,U,55974,999,18349,.40375866E-3,.21333E-3,0
TIANMU-1 05,2023-039C,2026-07-04T07:06:57.019392,15.47708034,.00036956,97.5223,359.5499,73.9788,286.1869,0,U,55975,999,18346,.3999925E-3,.20628E-3,0
TIANMU-1 06,2023-039D,2026-07-04T07:15:04.527936,15.48297068,.000392,97.5229,0.2089,68.6125,291.5543,0,U,55976,999,18349,.39275938E-3,.20673E-3,0
FENGYUN 3G,2023-055A,2026-07-04T06:51:50.114880,15.53394365,.00072365,49.9917,257.8715,8.1637,351.9447,0,U,56232,999,18266,.48906232E-3,.31248E-3,0
METEOR-M2 3,2023-091A,2026-07-04T07:30:19.509984,14.24048294,.00050461,98.6079,239.9400,114.7593,245.4112,0,U,57166,999,15695,.25752075E-4,.16E-6,0
TIANMU-1 07,2023-101A,2026-07-04T07:14:45.131136,15.30012425,.00042543,97.2578,235.5783,86.8021,273.3707,0,U,57399,999,16426,.28463865E-3,.8198E-4,0
TIANMU-1 08,2023-101B,2026-07-04T08:00:49.610592,15.30016390,.00053953,97.2566,235.3777,73.8096,286.3738,0,U,57400,999,16426,.27217801E-3,.7838E-4,0
TIANMU-1 09,2023-101C,2026-07-04T07:36:24.115392,15.30054810,.00048367,97.2525,234.7681,88.8368,271.3427,0,U,57401,999,16426,.29324818E-3,.846E-4,0
TIANMU-1 10,2023-101D,2026-07-04T06:50:15.627840,15.30026260,.00063064,97.2604,235.8047,82.7272,277.4686,0,U,57402,999,16425,.28579001E-3,.8237E-4,0
FENGYUN 3F,2023-111A,2026-07-04T05:43:00.274368,14.19942072,.00014654,98.6830,254.9287,81.8873,278.2470,0,U,57490,999,15128,.52548733E-4,.68E-6,0
ARKTIKA-M 2,2023-198A,2026-06-29T17:20:14.637696,2.00610643,.69058771,63.2199,152.9641,267.3845,18.7575,0,U,58584,999,1857,0,.148E-5,0
TIANMU-1 11,2023-205A,2026-07-04T06:53:18.307680,15.27174356,.00070632,97.3440,206.5766,311.1829,48.8801,0,U,58645,999,14013,.26159516E-3,.6901E-4,0
TIANMU-1 12,2023-205B,2026-07-02T10:09:37.320768,15.27051163,.0005309,97.3426,204.4940,296.9950,63.0746,0,U,58646,999,13983,.25584E-3,.672E-4,0
TIANMU-1 13,2023-205C,2026-07-04T06:59:53.306016,15.26996312,.00049926,97.3456,206.6085,261.8723,98.1950,0,U,58647,999,14011,.27599227E-3,.7243E-4,0
TIANMU-1 14,2023-205D,2026-07-04T08:12:13.610016,15.27041511,.00057578,97.3393,205.8263,268.9935,91.0645,0,U,58648,999,14012,.28083697E-3,.7382E-4,0
TIANMU-1 19,2023-208A,2026-07-04T06:32:28.700160,15.31839049,.00036901,97.4521,301.6635,244.5369,115.5491,0,U,58660,999,13994,.36135317E-3,.11036E-3,0
