FENGYUN 3D              
1 43010U 17072A   26185.27271291  .00000460  00000+0  23929-3 0  9995
2 43010  99.0137 160.0047 0002060  33.9887 326.1420 14.19743843447415
NOAA 20 (JPSS-1)        
1 43013U 17073A   26185.05902104  .00000071  00000+0  54827-4 0  9999
2 43013  98.7772 124.3718 0000934 132.6124 227.5131 14.19514840446860
GOES 17                 
1 43226U 18022A   26185.13323792 -.00000171  00000+0  00000+0 0  9990
2 43226   0.9775  85.4459 0000698  49.8448 105.3262  1.00271299 30599
SENTINEL-3B             
1 43437U 18039A   26185.16113559  .00000140  00000+0  76024-4 0  9992
2 43437  98.6242 252.4495 0000879 117.3347 242.7924 14.26739740426549
FENGYUN 2H              
1 43491U 18050A   26185.09531830 -.00000118  00000+0  00000+0 0  9995
2 43491   3.0725  78.8823 0001816 121.6728 195.1533  1.00269281 29602
METOP-C                 
1 43689U 18087A   26185.17215960  .00000128  00000+0  78080-4 0  9994
2 43689  98.6636 244.4647 0002168 107.8151 252.3263 14.21516822397241
GEO-KOMPSAT-2A          
1 43823U 18100A   26183.83125884 -.00000333  00000+0  00000+0 0  9997
2 43823   0.0451 169.6912 0002255 284.8102 253.8622  1.00268738 27782
METEOR-M2 2             
1 44387U 19038A   26185.24421631  .00000260  00000+0  13210-3 0  9999
2 44387  98.9152 172.7821 0001343  23.1634 336.9605 14.24370807363729
ARKTIKA-M 1             
1 47719U 21016A   26180.95192977 -.00000281  00000+0  00000+0 0  9994
2 47719  63.2520  55.7907 7292817 269.9910  14.5481  2.00617895 39040
FENGYUN 3E              
1 49008U 21062A   26185.32515200  .00000180  00000+0  10527-3 0  9998
2 49008  98.7493 188.5421 0002653  57.4948 302.6484 14.19906502259016
GOES 18                 
1 51850U 22021A   26184.76737028  .00000108  00000+0  00000+0 0  9994
2 51850   0.0069  78.9133 0000553  70.1938 271.9273  1.00271795  6759
NOAA 21 (JPSS-2)        
1 54234U 22150A   26185.23246881  .00000079  00000+0  57925-4 0  9991
2 54234  98.7060 123.7352 0002520 123.4848 236.6570 14.19539650188966
METEOSAT-12 (MTG-I1)    
1 54743U 22170C   26185.22217068  .00000006  00000+0  00000+0 0  9999
2 54743   0.7567  25.5280 0003545  75.4639 261.0086  1.00276399 13142
TIANMU-1 03             
1 55973U 23039A   26185.31489530  .00020561  00000+0  39766-3 0  9998
2 55973  97.5242 359.9603 0003509  54.7165 305.4413 15.47783606183481
TIANMU-1 04             
1 55974U 23039B   26185.29766984  .00021333  00000+0  40376-3 0  9994
2 55974  97.5178 359.0977 0003962  49.8882 310.2715 15.48398804183492
TIANMU-1 05             
1 55975U 23039C   26185.29649328  .00020628  00000+0  39999-3 0  9992
2 55975  97.5223 359.5499 0003695  73.9788 286.1869 15.47708034183461
TIANMU-1 06             
1 55976U 23039D   26185.30213574  .00020673  00000+0  39276-3 0  9993
2 55976  97.5229   0.2089 0003920  68.6125 291.5543 15.48297068183493
FENGYUN 3G              
1 56232U 23055A   26185.28599670  .00031248  00000+0  48906-3 0  9998
2 56232  49.9917 257.8715 0007236   8.1637 351.9447 15.53394365182667
METEOR-M2 3             
1 57166U 23091A   26185.31272581  .00000016  00000+0  25752-4 0  9992
2 57166  98.6079 239.9400 0005046 114.7593 245.4112 14.24048294156951
TIANMU-1 07             
1 57399U 23101A   26185.30191124  .00008198  00000+0  28464-3 0  9995
2 57399  97.2578 235.5783 0004254  86.8021 273.3707 15.30012425164267
TIANMU-1 08             
1 57400U 23101B   26185.33390753  .00007838  00000+0  27218-3 0  9996
2 57400  97.2566 235.3777 0005395  73.8096 286.3738 15.30016390164266
TIANMU-1 09             
1 57401U 23101C   26185.31694578  .00008460  00000+0  29325-3 0  9990
2 57401  97.2525 234.7681 0004836  88.8368 271.3427 15.30054810164264
TIANMU-1 10             
1 57402U 23101D   26185.28490310  .00008237  00000+0  28579-3 0  9997
2 57402  97.2604 235.8047 0006306  82.7272 277.4686 15.30026260164253
FENGYUN 3F              
1 57490U 23111A   26185.23819762  .00000068  00000+0  52549-4 0  9995
2 57490  98.6830 254.9287 0001465  81.8873 278.2470 14.19942072151285
ARKTIKA-M 2             
1 58584U 23198A   26180.72239164  .00000148  00000+0  00000+0 0  9995
2 58584  63.2199 152.9641 6905877 267.3845  18.7575  2.00610643 18573
TIANMU-1 11             
1 58645U 23205A   26185.28701745  .00006901  00000+0  26160-3 0  9999
2 58645  97.3440 206.5766 0007063 311.1829  48.8801 15.27174356140139
TIANMU-1 12             
1 58646U 23205B   26183.42334862  .00006720  00000+0  25584-3 0  9994
2 58646  97.3426 204.4940 0005309 296.9950  63.0746 15.27051163139833
TIANMU-1 13             
1 58647U 23205C   26185.29158919  .00007243  00000+0  27599-3 0  9998
2 58647  97.3456 206.6085 0004992 261.8723  98.1950 15.26996312140119
TIANMU-1 14             
1 58648U 23205D   26185.34182419  .00007382  00000+0  28084-3 0  9991
2 58648  97.3393 205.8263 0005757 268.9935  91.0645 15.27041511140129
TIANMU-1 19             
1 58660U 23208A   26185.27255440  .00011036  00000+0  36135-3 0  9992
2 58660  97.4521 301.6635 0003690 244.5369 115.5491 15.31839049139945
